[{"OBJECT_NAME":"SENTINEL-6A","OBJECT_ID":"2020-086A","EPOCH":"2026-03-15T01:58:12.783360","MEAN_MOTION":12.80929919,"ECCENTRICITY":0.00077736,"INCLINATION":66.0439,"RA_OF_ASC_NODE":330.5132,"ARG_OF_PERICENTER":270.922,"MEAN_ANOMALY":89.0904,"EPHEMERIS_TYPE":0,"CLASSIFICATION_TYPE":"U","NORAD_CAT_ID":46984,"ELEMENT_SET_NO":999,"REV_AT_EPOCH":24827,"BSTAR":8.102522e-5,"MEAN_MOTION_DOT":-4.2e-7,"MEAN_MOTION_DDOT":0},{"OBJECT_NAME":"GAOFEN-12 02","OBJECT_ID":"2021-026A","EPOCH":"2026-03-15T06:23:21.153984","MEAN_MOTION":14.80210671,"ECCENTRICITY":0.00050478,"INCLINATION":97.992,"RA_OF_ASC_NODE":72.8426,"ARG_OF_PERICENTER":162.4291,"MEAN_ANOMALY":197.7096,"EPHEMERIS_TYPE":0,"CLASSIFICATION_TYPE":"U","NORAD_CAT_ID":48079,"ELEMENT_SET_NO":999,"REV_AT_EPOCH":26786,"BSTAR":7.4370247e-5,"MEAN_MOTION_DOT":5.13e-6,"MEAN_MOTION_DDOT":0},{"OBJECT_NAME":"PLEIADES NEO 3","OBJECT_ID":"2021-034A","EPOCH":"2026-03-15T07:34:18.005088","MEAN_MOTION":14.81675419,"ECCENTRICITY":0.00013342,"INCLINATION":97.8934,"RA_OF_ASC_NODE":150.4297,"ARG_OF_PERICENTER":92.1954,"MEAN_ANOMALY":267.9411,"EPHEMERIS_TYPE":0,"CLASSIFICATION_TYPE":"U","NORAD_CAT_ID":48268,"ELEMENT_SET_NO":999,"REV_AT_EPOCH":26375,"BSTAR":7.8034377e-5,"MEAN_MOTION_DOT":5.62e-6,"MEAN_MOTION_DDOT":0},{"OBJECT_NAME":"PLEIADES NEO 4","OBJECT_ID":"2021-073E","EPOCH":"2026-03-15T06:45:39.776832","MEAN_MOTION":14.81670948,"ECCENTRICITY":0.00012825,"INCLINATION":97.893,"RA_OF_ASC_NODE":150.392,"ARG_OF_PERICENTER":92.165,"MEAN_ANOMALY":267.971,"EPHEMERIS_TYPE":0,"CLASSIFICATION_TYPE":"U","NORAD_CAT_ID":49070,"ELEMENT_SET_NO":999,"REV_AT_EPOCH":24746,"BSTAR":-5.4758001e-5,"MEAN_MOTION_DOT":-4.83e-6,"MEAN_MOTION_DDOT":0},{"OBJECT_NAME":"LANDSAT 9","OBJECT_ID":"2021-088A","EPOCH":"2026-03-15T04:31:15.033216","MEAN_MOTION":14.57131099,"ECCENTRICITY":0.00011129,"INCLINATION":98.193,"RA_OF_ASC_NODE":145.8858,"ARG_OF_PERICENTER":94.8535,"MEAN_ANOMALY":265.279,"EPHEMERIS_TYPE":0,"CLASSIFICATION_TYPE":"U","NORAD_CAT_ID":49260,"ELEMENT_SET_NO":999,"REV_AT_EPOCH":23731,"BSTAR":0.00010087499,"MEAN_MOTION_DOT":4.1e-6,"MEAN_MOTION_DDOT":0},{"OBJECT_NAME":"CSG-2","OBJECT_ID":"2022-008A","EPOCH":"2026-03-15T05:53:26.288160","MEAN_MOTION":14.82145585,"ECCENTRICITY":0.0001363,"INCLINATION":97.8871,"RA_OF_ASC_NODE":259.2001,"ARG_OF_PERICENTER":82.6425,"MEAN_ANOMALY":277.4943,"EPHEMERIS_TYPE":0,"CLASSIFICATION_TYPE":"U","NORAD_CAT_ID":51444,"ELEMENT_SET_NO":999,"REV_AT_EPOCH":22267,"BSTAR":3.106394e-6,"MEAN_MOTION_DOT":-2.7e-7,"MEAN_MOTION_DDOT":0},{"OBJECT_NAME":"GAOFEN-12 03","OBJECT_ID":"2022-069A","EPOCH":"2026-03-15T06:38:35.320416","MEAN_MOTION":14.79866877,"ECCENTRICITY":0.00023843,"INCLINATION":97.8404,"RA_OF_ASC_NODE":324.4634,"ARG_OF_PERICENTER":83.9733,"MEAN_ANOMALY":276.1751,"EPHEMERIS_TYPE":0,"CLASSIFICATION_TYPE":"U","NORAD_CAT_ID":52912,"ELEMENT_SET_NO":999,"REV_AT_EPOCH":20072,"BSTAR":0.00016773826,"MEAN_MOTION_DOT":1.214e-5,"MEAN_MOTION_DDOT":0},{"OBJECT_NAME":"SWOT","OBJECT_ID":"2022-173A","EPOCH":"2026-03-15T05:46:01.902720","MEAN_MOTION":14.00170423,"ECCENTRICITY":5.897e-5,"INCLINATION":77.6117,"RA_OF_ASC_NODE":162.1303,"ARG_OF_PERICENTER":246.5112,"MEAN_ANOMALY":113.5978,"EPHEMERIS_TYPE":0,"CLASSIFICATION_TYPE":"U","NORAD_CAT_ID":54754,"ELEMENT_SET_NO":999,"REV_AT_EPOCH":16600,"BSTAR":2.172213e-6,"MEAN_MOTION_DOT":1.0e-8,"MEAN_MOTION_DDOT":0},{"OBJECT_NAME":"GAOFEN-12 04","OBJECT_ID":"2023-123A","EPOCH":"2026-03-15T07:18:55.013760","MEAN_MOTION":14.8002136,"ECCENTRICITY":0.00015989,"INCLINATION":97.9129,"RA_OF_ASC_NODE":353.6842,"ARG_OF_PERICENTER":74.0801,"MEAN_ANOMALY":286.0587,"EPHEMERIS_TYPE":0,"CLASSIFICATION_TYPE":"U","NORAD_CAT_ID":57654,"ELEMENT_SET_NO":999,"REV_AT_EPOCH":13874,"BSTAR":0.00018760061,"MEAN_MOTION_DOT":1.368e-5,"MEAN_MOTION_DDOT":0},{"OBJECT_NAME":"PARS 1","OBJECT_ID":"2024-039Q","EPOCH":"2026-03-15T06:08:00.784896","MEAN_MOTION":15.43596112,"ECCENTRICITY":0.00121439,"INCLINATION":97.4754,"RA_OF_ASC_NODE":52.4035,"ARG_OF_PERICENTER":94.1665,"MEAN_ANOMALY":266.0971,"EPHEMERIS_TYPE":0,"CLASSIFICATION_TYPE":"U","NORAD_CAT_ID":59065,"ELEMENT_SET_NO":999,"REV_AT_EPOCH":11414,"BSTAR":0.00031469131,"MEAN_MOTION_DOT":0.00014104,"MEAN_MOTION_DDOT":0},{"OBJECT_NAME":"RESURS-P 4","OBJECT_ID":"2024-061A","EPOCH":"2026-03-15T07:03:36.628416","MEAN_MOTION":15.32981195,"ECCENTRICITY":0.00020601,"INCLINATION":97.2657,"RA_OF_ASC_NODE":23.8527,"ARG_OF_PERICENTER":54.931,"MEAN_ANOMALY":305.2125,"EPHEMERIS_TYPE":0,"CLASSIFICATION_TYPE":"U","NORAD_CAT_ID":59371,"ELEMENT_SET_NO":999,"REV_AT_EPOCH":10938,"BSTAR":0.00014685847,"MEAN_MOTION_DOT":4.601e-5,"MEAN_MOTION_DDOT":0},{"OBJECT_NAME":"LEGION 1","OBJECT_ID":"2024-081A","EPOCH":"2026-03-15T06:38:15.391392","MEAN_MOTION":15.16404769,"ECCENTRICITY":0.00096164,"INCLINATION":97.5069,"RA_OF_ASC_NODE":153.1203,"ARG_OF_PERICENTER":354.8796,"MEAN_ANOMALY":5.2337,"EPHEMERIS_TYPE":0,"CLASSIFICATION_TYPE":"U","NORAD_CAT_ID":59625,"ELEMENT_SET_NO":999,"REV_AT_EPOCH":10330,"BSTAR":0.00026346064,"MEAN_MOTION_DOT":5.057e-5,"MEAN_MOTION_DDOT":0},{"OBJECT_NAME":"LEGION 2","OBJECT_ID":"2024-081B","EPOCH":"2026-03-15T06:00:33.651072","MEAN_MOTION":15.16624378,"ECCENTRICITY":0.00097761,"INCLINATION":97.5067,"RA_OF_ASC_NODE":153.1693,"ARG_OF_PERICENTER":324.4116,"MEAN_ANOMALY":35.6464,"EPHEMERIS_TYPE":0,"CLASSIFICATION_TYPE":"U","NORAD_CAT_ID":59626,"ELEMENT_SET_NO":999,"REV_AT_EPOCH":10330,"BSTAR":0.00025262486,"MEAN_MOTION_DOT":4.877e-5,"MEAN_MOTION_DDOT":0},{"OBJECT_NAME":"ALOS-4 (DAICHI-4)","OBJECT_ID":"2024-123A","EPOCH":"2026-03-15T06:49:07.383936","MEAN_MOTION":14.79480101,"ECCENTRICITY":0.00015506,"INCLINATION":97.9192,"RA_OF_ASC_NODE":172.8026,"ARG_OF_PERICENTER":101.5509,"MEAN_ANOMALY":258.5877,"EPHEMERIS_TYPE":0,"CLASSIFICATION_TYPE":"U","NORAD_CAT_ID":60182,"ELEMENT_SET_NO":999,"REV_AT_EPOCH":9199,"BSTAR":0.00029677144,"MEAN_MOTION_DOT":2.166e-5,"MEAN_MOTION_DDOT":0},{"OBJECT_NAME":"LEGION 3","OBJECT_ID":"2024-146A","EPOCH":"2026-03-15T06:39:59.155200","MEAN_MOTION":15.16219362,"ECCENTRICITY":0.00129513,"INCLINATION":45.0008,"RA_OF_ASC_NODE":173.9358,"ARG_OF_PERICENTER":351.2309,"MEAN_ANOMALY":8.8342,"EPHEMERIS_TYPE":0,"CLASSIFICATION_TYPE":"U","NORAD_CAT_ID":60452,"ELEMENT_SET_NO":999,"REV_AT_EPOCH":8777,"BSTAR":0.00029297237,"MEAN_MOTION_DOT":5.507e-5,"MEAN_MOTION_DDOT":0},{"OBJECT_NAME":"LEGION 4","OBJECT_ID":"2024-146B","EPOCH":"2026-03-15T00:17:30.357024","MEAN_MOTION":15.16274738,"ECCENTRICITY":0.00096992,"INCLINATION":45.0023,"RA_OF_ASC_NODE":267.207,"ARG_OF_PERICENTER":138.7509,"MEAN_ANOMALY":221.4104,"EPHEMERIS_TYPE":0,"CLASSIFICATION_TYPE":"U","NORAD_CAT_ID":60453,"ELEMENT_SET_NO":999,"REV_AT_EPOCH":8658,"BSTAR":0.00034853302,"MEAN_MOTION_DOT":6.609e-5,"MEAN_MOTION_DDOT":0},{"OBJECT_NAME":"SENTINEL-2C","OBJECT_ID":"2024-157A","EPOCH":"2026-03-15T04:28:38.664768","MEAN_MOTION":14.30816409,"ECCENTRICITY":8.555e-5,"INCLINATION":98.5679,"RA_OF_ASC_NODE":150.3202,"ARG_OF_PERICENTER":109.2762,"MEAN_ANOMALY":250.8513,"EPHEMERIS_TYPE":0,"CLASSIFICATION_TYPE":"U","NORAD_CAT_ID":60989,"ELEMENT_SET_NO":999,"REV_AT_EPOCH":7954,"BSTAR":6.4047015e-5,"MEAN_MOTION_DOT":1.24e-6,"MEAN_MOTION_DDOT":0}]
