SENTINEL-6A             
1 46984U 20086A   26074.08209240 -.00000042  00000+0  81025-4 0  9997
2 46984  66.0439 330.5132 0007773 270.9220  89.0904 12.80929919248277
GAOFEN-12 02            
1 48079U 21026A   26074.26621706  .00000513  00000+0  74370-4 0  9991
2 48079  97.9920  72.8426 0005047 162.4291 197.7096 14.80210671267864
PLEIADES NEO 3          
1 48268U 21034A   26074.31548617  .00000562  00000+0  78034-4 0  9990
2 48268  97.8934 150.4297 0001334  92.1954 267.9411 14.81675419263758
PLEIADES NEO 4          
1 49070U 21073E   26074.28171038 -.00000483  00000+0 -54758-4 0  9991
2 49070  97.8930 150.3920 0001282  92.1650 267.9710 14.81670948247467
LANDSAT 9               
1 49260U 21088A   26074.18836844  .00000410  00000+0  10087-3 0  9994
2 49260  98.1930 145.8858 0001112  94.8535 265.2790 14.57131099237318
CSG-2                   
1 51444U 22008A   26074.24544315 -.00000027  00000+0  31064-5 0  9995
2 51444  97.8871 259.2001 0001363  82.6425 277.4943 14.82145585222677
GAOFEN-12 03            
1 52912U 22069A   26074.27679769  .00001214  00000+0  16774-3 0  9995
2 52912  97.8404 324.4634 0002384  83.9733 276.1751 14.79866877200722
SWOT                    
1 54754U 22173A   26074.24029980  .00000001  00000+0  21722-5 0  9992
2 54754  77.6117 162.1303 0000589 246.5112 113.5978 14.00170423166004
GAOFEN-12 04            
1 57654U 23123A   26074.30480340  .00001368  00000+0  18760-3 0  9991
2 57654  97.9129 353.6842 0001598  74.0801 286.0587 14.80021360138744
PARS 1                  
1 59065U 24039Q   26074.25556464  .00014104  00000+0  31469-3 0  9994
2 59065  97.4754  52.4035 0012143  94.1665 266.0971 15.43596112114143
RESURS-P 4              
1 59371U 24061A   26074.29417394  .00004601  00000+0  14686-3 0  9994
2 59371  97.2657  23.8527 0002060  54.9310 305.2125 15.32981195109383
LEGION 1                
1 59625U 24081A   26074.27656703  .00005057  00000+0  26346-3 0  9997
2 59625  97.5069 153.1203 0009616 354.8796   5.2337 15.16404769103304
LEGION 2                
1 59626U 24081B   26074.25038948  .00004877  00000+0  25262-3 0  9996
2 59626  97.5067 153.1693 0009776 324.4116  35.6464 15.16624378103300
ALOS-4 (DAICHI-4)       
1 60182U 24123A   26074.28411324  .00002166  00000+0  29677-3 0  9991
2 60182  97.9192 172.8026 0001550 101.5509 258.5877 14.79480101 91999
LEGION 3                
1 60452U 24146A   26074.27776800  .00005507  00000+0  29297-3 0  9998
2 60452  45.0008 173.9358 0012951 351.2309   8.8342 15.16219362 87773
LEGION 4                
1 60453U 24146B   26074.01215691  .00006609  00000+0  34853-3 0  9995
2 60453  45.0023 267.2070 0009699 138.7509 221.4104 15.16274738 86589
SENTINEL-2C             
1 60989U 24157A   26074.18655862  .00000124  00000+0  64047-4 0  9992
2 60989  98.5679 150.3202 0000855 109.2762 250.8513 14.30816409 79541
